{
  "norad_id": 63214,
  "name": "TEVEL2-5",
  "history": [
    {
      "epoch": "2026-03-28T15:45:54.108000",
      "apogee_km": 474.0012537764642,
      "perigee_km": 468.25472045227525,
      "latitude_deg": -2.8760755422903372,
      "longitude_deg": -155.53988000005484,
      "semi_major_axis_km": 6849.264987114369,
      "eccentricity": 0.0004195,
      "inclination_deg": 97.3997,
      "raan_deg": 344.0161,
      "arg_perigee_deg": 59.1708,
      "mean_anomaly_deg": 300.9946,
      "mean_motion_rev_day": 15.31569852
    }
  ]
}